{"type": "FeatureCollection", "features": [ {"type": "Feature", "properties": {"norad_id": 66695, "name": "IRIDE FM1", "group": "last-30-days", "lat": 67.11083114768522, "lon": 48.39879276562518, "alt_km": 504.550150179075, "timestamp": "2025-12-20T18:51:30.446058+00:00", "meta": {"OBJECT_NAME": "IRIDE FM1", "OBJECT_ID": "2025-276AF", "EPOCH": "2025-12-20T13:48:47.784384", "MEAN_MOTION": 15.18211419, "ECCENTRICITY": 0.00011323, "INCLINATION": 97.441, "RA_OF_ASC_NODE": 66.225, "ARG_OF_PERICENTER": 146.2307, "MEAN_ANOMALY": 213.8999, "EPHEMERIS_TYPE": 0, "CLASSIFICATION_TYPE": "U", "NORAD_CAT_ID": 66695, "ELEMENT_SET_NO": 999, "REV_AT_EPOCH": 331, "BSTAR": 0.00034568586, "MEAN_MOTION_DOT": 7.006e-05, "MEAN_MOTION_DDOT": 0}, "tle": {"line1": "1 66695U 25276AF  25354.57555306  .00007006  00000+0  34569-3 0  9991", "line2": "2 66695  97.4410  66.2250 0001132 146.2307 213.8999 15.18211419  3311"}}, "geometry": {"type": "Point", "coordinates": [48.39879276562518, 67.11083114768522]}}, {"type": "Feature", "properties": {"norad_id": 66696, "name": "IRIDE FM2", "group": "last-30-days", "lat": 3.551011373993755, "lon": 65.93620837069409, "alt_km": 516.189317003259, "timestamp": "2025-12-20T18:51:30.446068+00:00", "meta": {"OBJECT_NAME": "IRIDE FM2", "OBJECT_ID": "2025-276AG", "EPOCH": "2025-12-20T14:05:40.796736", "MEAN_MOTION": 15.17376101, "ECCENTRICITY": 0.00024354, "INCLINATION": 97.4399, "RA_OF_ASC_NODE": 66.2059, "ARG_OF_PERICENTER": 280.8016, "MEAN_ANOMALY": 79.2944, "EPHEMERIS_TYPE": 0, "CLASSIFICATION_TYPE": "U", "NORAD_CAT_ID": 66696, "ELEMENT_SET_NO": 999, "REV_AT_EPOCH": 331, "BSTAR": 0.0003124382, "MEAN_MOTION_DOT": 6.175e-05, "MEAN_MOTION_DDOT": 0}, "tle": {"line1": "1 66696U 25276AG  25354.58727774  .00006175  00000+0  31244-3 0  9996", "line2": "2 66696  97.4399  66.2059 0002435 280.8016  79.2944 15.17376101  3317"}}, "geometry": {"type": "Point", "coordinates": [65.93620837069409, 3.551011373993755]}}, {"type": "Feature", "properties": {"norad_id": 66697, "name": "IRIDE FM3", "group": "last-30-days", "lat": 61.71872396658792, "lon": 52.36984299531779, "alt_km": 505.59362437886375, "timestamp": "2025-12-20T18:51:30.446079+00:00", "meta": {"OBJECT_NAME": "IRIDE FM3", "OBJECT_ID": "2025-276AH", "EPOCH": "2025-12-20T13:50:16.020384", "MEAN_MOTION": 15.18123902, "ECCENTRICITY": 0.00010199, "INCLINATION": 97.4398, "RA_OF_ASC_NODE": 66.2207, "ARG_OF_PERICENTER": 158.8939, "MEAN_ANOMALY": 201.2338, "EPHEMERIS_TYPE": 0, "CLASSIFICATION_TYPE": "U", "NORAD_CAT_ID": 66697, "ELEMENT_SET_NO": 999, "REV_AT_EPOCH": 331, "BSTAR": 0.00032660068, "MEAN_MOTION_DOT": 6.598e-05, "MEAN_MOTION_DDOT": 0}, "tle": {"line1": "1 66697U 25276AH  25354.57657431  .00006598  00000+0  32660-3 0  9990", "line2": "2 66697  97.4398  66.2207 0001019 158.8939 201.2338 15.18123902  3311"}}, "geometry": {"type": "Point", "coordinates": [52.36984299531779, 61.71872396658792]}}, {"type": "Feature", "properties": {"norad_id": 66698, "name": "IRIDE FM4", "group": "last-30-days", "lat": -0.6174167541254906, "lon": 66.48073967993984, "alt_km": 517.1108810878422, "timestamp": "2025-12-20T18:51:30.446092+00:00", "meta": {"OBJECT_NAME": "IRIDE FM4", "OBJECT_ID": "2025-276AJ", "EPOCH": "2025-12-20T14:06:46.478016", "MEAN_MOTION": 15.17302391, "ECCENTRICITY": 0.00027423, "INCLINATION": 97.4394, "RA_OF_ASC_NODE": 66.2059, "ARG_OF_PERICENTER": 271.543, "MEAN_ANOMALY": 88.549, "EPHEMERIS_TYPE": 0, "CLASSIFICATION_TYPE": "U", "NORAD_CAT_ID": 66698, "ELEMENT_SET_NO": 999, "REV_AT_EPOCH": 331, "BSTAR": 0.00031124841, "MEAN_MOTION_DOT": 6.138e-05, "MEAN_MOTION_DDOT": 0}, "tle": {"line1": "1 66698U 25276AJ  25354.58803794  .00006138  00000+0  31125-3 0  9992", "line2": "2 66698  97.4394  66.2059 0002742 271.5430  88.5490 15.17302391  3311"}}, "geometry": {"type": "Point", "coordinates": [66.48073967993984, -0.6174167541254906]}}, {"type": "Feature", "properties": {"norad_id": 66699, "name": "IRIDE FM5", "group": "last-30-days", "lat": 0.190890930391975, "lon": 66.37950418366438, "alt_km": 516.9835051946447, "timestamp": "2025-12-20T18:51:30.446103+00:00", "meta": {"OBJECT_NAME": "IRIDE FM5", "OBJECT_ID": "2025-276AK", "EPOCH": "2025-12-20T14:06:34.024320", "MEAN_MOTION": 15.17342124, "ECCENTRICITY": 0.00029949, "INCLINATION": 97.4409, "RA_OF_ASC_NODE": 66.2101, "ARG_OF_PERICENTER": 269.5186, "MEAN_ANOMALY": 90.5704, "EPHEMERIS_TYPE": 0, "CLASSIFICATION_TYPE": "U", "NORAD_CAT_ID": 66699, "ELEMENT_SET_NO": 999, "REV_AT_EPOCH": 331, "BSTAR": 0.00030839338, "MEAN_MOTION_DOT": 6.088e-05, "MEAN_MOTION_DDOT": 0}, "tle": {"line1": "1 66699U 25276AK  25354.58789380  .00006088  00000+0  30839-3 0  9992", "line2": "2 66699  97.4409  66.2101 0002994 269.5186  90.5704 15.17342124  3310"}}, "geometry": {"type": "Point", "coordinates": [66.37950418366438, 0.190890930391975]}}, {"type": "Feature", "properties": {"norad_id": 66700, "name": "IRIDE FM6", "group": "last-30-days", "lat": 64.61987795998832, "lon": 50.44092281021897, "alt_km": 505.25555547520435, "timestamp": "2025-12-20T18:51:30.446113+00:00", "meta": {"OBJECT_NAME": "IRIDE FM6", "OBJECT_ID": "2025-276AL", "EPOCH": "2025-12-20T13:49:28.714656", "MEAN_MOTION": 15.18176089, "ECCENTRICITY": 0.00014521, "INCLINATION": 97.4431, "RA_OF_ASC_NODE": 66.2306, "ARG_OF_PERICENTER": 167.2933, "MEAN_ANOMALY": 192.8338, "EPHEMERIS_TYPE": 0, "CLASSIFICATION_TYPE": "U", "NORAD_CAT_ID": 66700, "ELEMENT_SET_NO": 999, "REV_AT_EPOCH": 331, "BSTAR": 0.00033580726, "MEAN_MOTION_DOT": 6.797e-05, "MEAN_MOTION_DDOT": 0}, "tle": {"line1": "1 66700U 25276AL  25354.57602679  .00006797  00000+0  33581-3 0  9993", "line2": "2 66700  97.4431  66.2306 0001452 167.2933 192.8338 15.18176089  3312"}}, "geometry": {"type": "Point", "coordinates": [50.44092281021897, 64.61987795998832]}}, {"type": "Feature", "properties": {"norad_id": 66701, "name": "IRIDE FM7", "group": "last-30-days", "lat": 0.07413770055863277, "lon": 66.39969801598183, "alt_km": 517.0689304387342, "timestamp": "2025-12-20T18:51:30.446123+00:00", "meta": {"OBJECT_NAME": "IRIDE FM7", "OBJECT_ID": "2025-276AM", "EPOCH": "2025-12-20T14:06:35.840448", "MEAN_MOTION": 15.17337746, "ECCENTRICITY": 0.00029057, "INCLINATION": 97.4432, "RA_OF_ASC_NODE": 66.215, "ARG_OF_PERICENTER": 267.7104, "MEAN_ANOMALY": 92.3797, "EPHEMERIS_TYPE": 0, "CLASSIFICATION_TYPE": "U", "NORAD_CAT_ID": 66701, "ELEMENT_SET_NO": 999, "REV_AT_EPOCH": 331, "BSTAR": 0.00032998958, "MEAN_MOTION_DOT": 6.519e-05, "MEAN_MOTION_DDOT": 0}, "tle": {"line1": "1 66701U 25276AM  25354.58791482  .00006519  00000+0  32999-3 0  9990", "line2": "2 66701  97.4432  66.2150 0002905 267.7104  92.3797 15.17337746  3312"}}, "geometry": {"type": "Point", "coordinates": [66.39969801598183, 0.07413770055863277]}}, {"type": "Feature", "properties": {"norad_id": 66702, "name": "IRIDE FM8", "group": "last-30-days", "lat": 0.9642642239165335, "lon": 66.27675750772796, "alt_km": 516.6630646050271, "timestamp": "2025-12-20T18:51:30.446133+00:00", "meta": {"OBJECT_NAME": "IRIDE FM8", "OBJECT_ID": "2025-276AN", "EPOCH": "2025-12-20T14:06:21.765024", "MEAN_MOTION": 15.17349141, "ECCENTRICITY": 0.00027616, "INCLINATION": 97.4408, "RA_OF_ASC_NODE": 66.2083, "ARG_OF_PERICENTER": 276.1118, "MEAN_ANOMALY": 83.9801, "EPHEMERIS_TYPE": 0, "CLASSIFICATION_TYPE": "U", "NORAD_CAT_ID": 66702, "ELEMENT_SET_NO": 999, "REV_AT_EPOCH": 331, "BSTAR": 0.00032224157, "MEAN_MOTION_DOT": 6.366e-05, "MEAN_MOTION_DDOT": 0}, "tle": {"line1": "1 66702U 25276AN  25354.58775191  .00006366  00000+0  32224-3 0  9991", "line2": "2 66702  97.4408  66.2083 0002761 276.1118  83.9801 15.17349141  3314"}}, "geometry": {"type": "Point", "coordinates": [66.27675750772796, 0.9642642239165335]}}, {"type": "Feature", "properties": {"norad_id": 66703, "name": "PELICAN-6", "group": "last-30-days", "lat": 8.257277159747481, "lon": 65.32123785648541, "alt_km": 516.0264690304066, "timestamp": "2025-12-20T18:51:30.446142+00:00", "meta": {"OBJECT_NAME": "PELICAN-6", "OBJECT_ID": "2025-276AP", "EPOCH": "2025-12-20T14:04:25.052448", "MEAN_MOTION": 15.17319505, "ECCENTRICITY": 8.213e-05, "INCLINATION": 97.4417, "RA_OF_ASC_NODE": 66.2123, "ARG_OF_PERICENTER": 264.5476, "MEAN_ANOMALY": 95.5664, "EPHEMERIS_TYPE": 0, "CLASSIFICATION_TYPE": "U", "NORAD_CAT_ID": 66703, "ELEMENT_SET_NO": 999, "REV_AT_EPOCH": 331, "BSTAR": 0.00030270954, "MEAN_MOTION_DOT": 5.97e-05, "MEAN_MOTION_DDOT": 0}, "tle": {"line1": "1 66703U 25276AP  25354.58640107  .00005970  00000+0  30271-3 0  9990", "line2": "2 66703  97.4417  66.2123 0000821 264.5476  95.5664 15.17319505  3310"}}, "geometry": {"type": "Point", "coordinates": [65.32123785648541, 8.257277159747481]}}, {"type": "Feature", "properties": {"norad_id": 66704, "name": "FLOCK 4H-1", "group": "last-30-days", "lat": 57.93479182625088, "lon": 54.38108573920857, "alt_km": 506.7120006966825, "timestamp": "2025-12-20T18:51:30.446153+00:00", "meta": {"OBJECT_NAME": "FLOCK 4H-1", "OBJECT_ID": "2025-276AQ", "EPOCH": "2025-12-20T13:51:16.855488", "MEAN_MOTION": 15.18049514, "ECCENTRICITY": 0.00016617, "INCLINATION": 97.4393, "RA_OF_ASC_NODE": 66.2153, "ARG_OF_PERICENTER": 176.996, "MEAN_ANOMALY": 183.1284, "EPHEMERIS_TYPE": 0, "CLASSIFICATION_TYPE": "U", "NORAD_CAT_ID": 66704, "ELEMENT_SET_NO": 999, "REV_AT_EPOCH": 331, "BSTAR": 0.00030626036, "MEAN_MOTION_DOT": 6.17e-05, "MEAN_MOTION_DDOT": 0}, "tle": {"line1": "1 66704U 25276AQ  25354.57727842  .00006170  00000+0  30626-3 0  9999", "line2": "2 66704  97.4393  66.2153 0001661 176.9960 183.1284 15.18049514  3317"}}, "geometry": {"type": "Point", "coordinates": [54.38108573920857, 57.93479182625088]}}]}